ONEWEB-0317             
1 49103U 21075AE  25323.24575809  .00000163  00000+0  41824-3 0  9998
2 49103  87.8969  32.3646 0002416  87.1619 272.9786 13.12444050207650
ONEWEB-0318             
1 49104U 21075AF  25323.20528460  .00000848  00000+0  21179-2 0  9996
2 49104  87.9211  17.1619 0001586 100.5422 259.5889 13.18695375209495
ONEWEB-0319             
1 49105U 21075AG  25323.28581911  .00000055  00000+0  10953-3 0  9994
2 49105  87.9129  47.6135 0001319 105.3769 254.7508 13.17646910205969
ONEWEB-0323             
1 49106U 21075AH  25323.23602290 -.00000277  00000+0 -80424-3 0  9992
2 49106  87.8968  32.3534 0001054 103.8782 256.2464 13.12443217207014
ONEWEB-0329             
1 49107U 21075AJ  25323.14239494 -.00000034  00000+0 -12026-3 0  9999
2 49107  87.9127  47.6443 0001588  99.1407 260.9904 13.17647083205925
ONEWEB-0330             
1 49108U 21075AK  25322.99136039  .00000017  00000+0  10668-4 0  9993
2 49108  87.9129  47.6794 0001634  93.4734 266.6584 13.17650737205948
ONEWEB-0292             
1 49186U 21083A   25323.14393160 -.00000200  00000+0 -58284-3 0  9997
2 49186  87.8999   2.0122 0001684  98.7608 261.3712 13.13469903203358
ONEWEB-0303             
1 49187U 21083B   25323.20197970  .00000063  00000+0  12651-3 0  9999
2 49187  87.9211  17.1633 0001643 101.2238 258.9079 13.18688825202308
ONEWEB-0306             
1 49188U 21083C   25323.19208718 -.00000290  00000+0 -76891-3 0  9991
2 49188  87.9210  17.1501 0002022  96.1490 263.9873 13.18685744202345
ONEWEB-0307             
1 49189U 21083D   25323.13799198 -.00000242  00000+0 -69660-3 0  9996
2 49189  87.8991   2.0051 0001806  97.0002 263.1333 13.13468053203354
ONEWEB-0320             
1 49190U 21083E   25323.19951089 -.00000035  00000+0 -12259-3 0  9995
2 49190  87.9213  17.1787 0001825  99.2147 260.9192 13.18688120202308
ONEWEB-0321             
1 49191U 21083F   25323.27885674 -.00000075  00000+0 -21656-3 0  9996
2 49191  87.9185 316.2963 0002144  86.1336 274.0042 13.20773357209123
ONEWEB-0322             
1 49192U 21083G   25323.13377206 -.00000184  00000+0 -53757-3 0  9997
2 49192  87.8997   2.0072 0002320  98.0001 262.1391 13.13468883203342
ONEWEB-0324             
1 49193U 21083H   25323.18549103  .00000120  00000+0  27211-3 0  9994
2 49193  87.9205  17.1583 0001836  91.8056 268.3286 13.18687999202326
ONEWEB-0325             
1 49194U 21083J   25323.18879589  .00000081  00000+0  17365-3 0  9994
2 49194  87.9213  17.1767 0001921  99.9286 260.2063 13.18684730202334
ONEWEB-0326             
1 49195U 21083K   25323.20376682 -.00000013  00000+0 -66700-4 0  9999
2 49195  87.9209  17.1608 0001560 106.5234 253.6069 13.18687960202320
