[{"OBJECT_NAME":"ONEWEB-0317","OBJECT_ID":"2021-075AE","EPOCH":"2025-11-19T05:53:53.498976","MEAN_MOTION":13.1244405,"ECCENTRICITY":0.00024162,"INCLINATION":87.8969,"RA_OF_ASC_NODE":32.3646,"ARG_OF_PERICENTER":87.1619,"MEAN_ANOMALY":272.9786,"EPHEMERIS_TYPE":0,"CLASSIFICATION_TYPE":"U","NORAD_CAT_ID":49103,"ELEMENT_SET_NO":999,"REV_AT_EPOCH":20765,"BSTAR":0.00041824338,"MEAN_MOTION_DOT":1.63e-6,"MEAN_MOTION_DDOT":0},{"OBJECT_NAME":"ONEWEB-0318","OBJECT_ID":"2021-075AF","EPOCH":"2025-11-19T04:55:36.589440","MEAN_MOTION":13.18695375,"ECCENTRICITY":0.00015863,"INCLINATION":87.9211,"RA_OF_ASC_NODE":17.1619,"ARG_OF_PERICENTER":100.5422,"MEAN_ANOMALY":259.5889,"EPHEMERIS_TYPE":0,"CLASSIFICATION_TYPE":"U","NORAD_CAT_ID":49104,"ELEMENT_SET_NO":999,"REV_AT_EPOCH":20949,"BSTAR":0.0021178814,"MEAN_MOTION_DOT":8.48e-6,"MEAN_MOTION_DDOT":0},{"OBJECT_NAME":"ONEWEB-0319","OBJECT_ID":"2021-075AG","EPOCH":"2025-11-19T06:51:34.771104","MEAN_MOTION":13.1764691,"ECCENTRICITY":0.00013191,"INCLINATION":87.9129,"RA_OF_ASC_NODE":47.6135,"ARG_OF_PERICENTER":105.3769,"MEAN_ANOMALY":254.7508,"EPHEMERIS_TYPE":0,"CLASSIFICATION_TYPE":"U","NORAD_CAT_ID":49105,"ELEMENT_SET_NO":999,"REV_AT_EPOCH":20596,"BSTAR":0.00010952953,"MEAN_MOTION_DOT":5.5e-7,"MEAN_MOTION_DDOT":0},{"OBJECT_NAME":"ONEWEB-0323","OBJECT_ID":"2021-075AH","EPOCH":"2025-11-19T05:39:52.378560","MEAN_MOTION":13.12443217,"ECCENTRICITY":0.00010548,"INCLINATION":87.8968,"RA_OF_ASC_NODE":32.3534,"ARG_OF_PERICENTER":103.8782,"MEAN_ANOMALY":256.2464,"EPHEMERIS_TYPE":0,"CLASSIFICATION_TYPE":"U","NORAD_CAT_ID":49106,"ELEMENT_SET_NO":999,"REV_AT_EPOCH":20701,"BSTAR":-0.00080424112,"MEAN_MOTION_DOT":-2.77e-6,"MEAN_MOTION_DDOT":0},{"OBJECT_NAME":"ONEWEB-0329","OBJECT_ID":"2021-075AJ","EPOCH":"2025-11-19T03:25:02.922816","MEAN_MOTION":13.17647083,"ECCENTRICITY":0.00015887,"INCLINATION":87.9127,"RA_OF_ASC_NODE":47.6443,"ARG_OF_PERICENTER":99.1407,"MEAN_ANOMALY":260.9904,"EPHEMERIS_TYPE":0,"CLASSIFICATION_TYPE":"U","NORAD_CAT_ID":49107,"ELEMENT_SET_NO":999,"REV_AT_EPOCH":20592,"BSTAR":-0.00012025613,"MEAN_MOTION_DOT":-3.4e-7,"MEAN_MOTION_DDOT":0},{"OBJECT_NAME":"ONEWEB-0330","OBJECT_ID":"2021-075AK","EPOCH":"2025-11-18T23:47:33.537696","MEAN_MOTION":13.17650737,"ECCENTRICITY":0.00016341,"INCLINATION":87.9129,"RA_OF_ASC_NODE":47.6794,"ARG_OF_PERICENTER":93.4734,"MEAN_ANOMALY":266.6584,"EPHEMERIS_TYPE":0,"CLASSIFICATION_TYPE":"U","NORAD_CAT_ID":49108,"ELEMENT_SET_NO":999,"REV_AT_EPOCH":20594,"BSTAR":1.0668416e-5,"MEAN_MOTION_DOT":1.7e-7,"MEAN_MOTION_DDOT":0},{"OBJECT_NAME":"ONEWEB-0292","OBJECT_ID":"2021-083A","EPOCH":"2025-11-19T03:27:15.690240","MEAN_MOTION":13.13469903,"ECCENTRICITY":0.0001684,"INCLINATION":87.8999,"RA_OF_ASC_NODE":2.0122,"ARG_OF_PERICENTER":98.7608,"MEAN_ANOMALY":261.3712,"EPHEMERIS_TYPE":0,"CLASSIFICATION_TYPE":"U","NORAD_CAT_ID":49186,"ELEMENT_SET_NO":999,"REV_AT_EPOCH":20335,"BSTAR":-0.000582842,"MEAN_MOTION_DOT":-2.0e-6,"MEAN_MOTION_DDOT":0},{"OBJECT_NAME":"ONEWEB-0303","OBJECT_ID":"2021-083B","EPOCH":"2025-11-19T04:50:51.046080","MEAN_MOTION":13.18688825,"ECCENTRICITY":0.00016437,"INCLINATION":87.9211,"RA_OF_ASC_NODE":17.1633,"ARG_OF_PERICENTER":101.2238,"MEAN_ANOMALY":258.9079,"EPHEMERIS_TYPE":0,"CLASSIFICATION_TYPE":"U","NORAD_CAT_ID":49187,"ELEMENT_SET_NO":999,"REV_AT_EPOCH":20230,"BSTAR":0.00012651171,"MEAN_MOTION_DOT":6.3e-7,"MEAN_MOTION_DDOT":0},{"OBJECT_NAME":"ONEWEB-0306","OBJECT_ID":"2021-083C","EPOCH":"2025-11-19T04:36:36.332352","MEAN_MOTION":13.18685744,"ECCENTRICITY":0.00020225,"INCLINATION":87.921,"RA_OF_ASC_NODE":17.1501,"ARG_OF_PERICENTER":96.149,"MEAN_ANOMALY":263.9873,"EPHEMERIS_TYPE":0,"CLASSIFICATION_TYPE":"U","NORAD_CAT_ID":49188,"ELEMENT_SET_NO":999,"REV_AT_EPOCH":20234,"BSTAR":-0.00076890958,"MEAN_MOTION_DOT":-2.9e-6,"MEAN_MOTION_DDOT":0},{"OBJECT_NAME":"ONEWEB-0307","OBJECT_ID":"2021-083D","EPOCH":"2025-11-19T03:18:42.507072","MEAN_MOTION":13.13468053,"ECCENTRICITY":0.00018063,"INCLINATION":87.8991,"RA_OF_ASC_NODE":2.0051,"ARG_OF_PERICENTER":97.0002,"MEAN_ANOMALY":263.1333,"EPHEMERIS_TYPE":0,"CLASSIFICATION_TYPE":"U","NORAD_CAT_ID":49189,"ELEMENT_SET_NO":999,"REV_AT_EPOCH":20335,"BSTAR":-0.00069660463,"MEAN_MOTION_DOT":-2.42e-6,"MEAN_MOTION_DDOT":0},{"OBJECT_NAME":"ONEWEB-0320","OBJECT_ID":"2021-083E","EPOCH":"2025-11-19T04:47:17.740896","MEAN_MOTION":13.1868812,"ECCENTRICITY":0.0001825,"INCLINATION":87.9213,"RA_OF_ASC_NODE":17.1787,"ARG_OF_PERICENTER":99.2147,"MEAN_ANOMALY":260.9192,"EPHEMERIS_TYPE":0,"CLASSIFICATION_TYPE":"U","NORAD_CAT_ID":49190,"ELEMENT_SET_NO":999,"REV_AT_EPOCH":20230,"BSTAR":-0.00012258737,"MEAN_MOTION_DOT":-3.5e-7,"MEAN_MOTION_DDOT":0},{"OBJECT_NAME":"ONEWEB-0321","OBJECT_ID":"2021-083F","EPOCH":"2025-11-19T06:41:33.222336","MEAN_MOTION":13.20773357,"ECCENTRICITY":0.00021443,"INCLINATION":87.9185,"RA_OF_ASC_NODE":316.2963,"ARG_OF_PERICENTER":86.1336,"MEAN_ANOMALY":274.0042,"EPHEMERIS_TYPE":0,"CLASSIFICATION_TYPE":"U","NORAD_CAT_ID":49191,"ELEMENT_SET_NO":999,"REV_AT_EPOCH":20912,"BSTAR":-0.00021656472,"MEAN_MOTION_DOT":-7.5e-7,"MEAN_MOTION_DDOT":0},{"OBJECT_NAME":"ONEWEB-0322","OBJECT_ID":"2021-083G","EPOCH":"2025-11-19T03:12:37.905984","MEAN_MOTION":13.13468883,"ECCENTRICITY":0.00023205,"INCLINATION":87.8997,"RA_OF_ASC_NODE":2.0072,"ARG_OF_PERICENTER":98.0001,"MEAN_ANOMALY":262.1391,"EPHEMERIS_TYPE":0,"CLASSIFICATION_TYPE":"U","NORAD_CAT_ID":49192,"ELEMENT_SET_NO":999,"REV_AT_EPOCH":20334,"BSTAR":-0.00053757281,"MEAN_MOTION_DOT":-1.84e-6,"MEAN_MOTION_DDOT":0},{"OBJECT_NAME":"ONEWEB-0324","OBJECT_ID":"2021-083H","EPOCH":"2025-11-19T04:27:06.424992","MEAN_MOTION":13.18687999,"ECCENTRICITY":0.00018367,"INCLINATION":87.9205,"RA_OF_ASC_NODE":17.1583,"ARG_OF_PERICENTER":91.8056,"MEAN_ANOMALY":268.3286,"EPHEMERIS_TYPE":0,"CLASSIFICATION_TYPE":"U","NORAD_CAT_ID":49193,"ELEMENT_SET_NO":999,"REV_AT_EPOCH":20232,"BSTAR":0.00027210625,"MEAN_MOTION_DOT":1.2e-6,"MEAN_MOTION_DDOT":0},{"OBJECT_NAME":"ONEWEB-0325","OBJECT_ID":"2021-083J","EPOCH":"2025-11-19T04:31:51.964896","MEAN_MOTION":13.1868473,"ECCENTRICITY":0.0001921,"INCLINATION":87.9213,"RA_OF_ASC_NODE":17.1767,"ARG_OF_PERICENTER":99.9286,"MEAN_ANOMALY":260.2063,"EPHEMERIS_TYPE":0,"CLASSIFICATION_TYPE":"U","NORAD_CAT_ID":49194,"ELEMENT_SET_NO":999,"REV_AT_EPOCH":20233,"BSTAR":0.00017365428,"MEAN_MOTION_DOT":8.1e-7,"MEAN_MOTION_DDOT":0},{"OBJECT_NAME":"ONEWEB-0326","OBJECT_ID":"2021-083K","EPOCH":"2025-11-19T04:53:25.453248","MEAN_MOTION":13.1868796,"ECCENTRICITY":0.00015604,"INCLINATION":87.9209,"RA_OF_ASC_NODE":17.1608,"ARG_OF_PERICENTER":106.5234,"MEAN_ANOMALY":253.6069,"EPHEMERIS_TYPE":0,"CLASSIFICATION_TYPE":"U","NORAD_CAT_ID":49195,"ELEMENT_SET_NO":999,"REV_AT_EPOCH":20232,"BSTAR":-6.6699721e-5,"MEAN_MOTION_DOT":-1.3e-7,"MEAN_MOTION_DDOT":0}]
